{
  "type": "FeatureCollection",
  "features": [
    {
      "type": "Feature",
      "geometry": {
        "type": "MultiPolygon",
        "coordinates": [
          [
            [
              [
                20.334408530000076,
                53.14515863500003
              ],
              [
                20.35378981200006,
                53.14707678000008
              ],
              [
                20.360779282000067,
                53.15498501600007
              ],
              [
                20.32553426100003,
                53.16035137500006
              ],
              [
                20.37633140500003,
                53.17741274900004
              ],
              [
                20.383057977000078,
                53.18919451900007
              ],
              [
                20.39983494200004,
                53.19695735700003
              ],
              [
                20.411136966000072,
                53.21416527000008
              ],
              [
                20.45412441800005,
                53.24308832100007
              ],
              [
                20.473657178000053,
                53.234246503000065
              ],
              [
                20.50738331200006,
                53.23459014600007
              ],
              [
                20.561917486000027,
                53.226486891000036
              ],
              [
                20.609241697000073,
                53.23907247000005
              ],
              [
                20.611845970000047,
                53.25233042800005
              ],
              [
                20.657212964000053,
                53.25151237400007
              ],
              [
                20.675953969000034,
                53.26952939900008
              ],
              [
                20.678790243000037,
                53.24943473500008
              ],
              [
                20.691682411000045,
                53.234869529000036
              ],
              [
                20.709081983000033,
                53.22520132600005
              ],
              [
                20.69070005100008,
                53.218886791000045
              ],
              [
                20.699146788000064,
                53.202939412000035
              ],
              [
                20.711615291000044,
                53.200792241000045
              ],
              [
                20.720076194000058,
                53.18290252000003
              ],
              [
                20.707601801000067,
                53.17976914500008
              ],
              [
                20.700646747000064,
                53.16336059100007
              ],
              [
                20.702925954000023,
                53.123961817000065
              ],
              [
                20.723844704000044,
                53.11578424800007
              ],
              [
                20.724711567000043,
                53.105896467000036
              ],
              [
                20.691440586000056,
                53.08947955600007
              ],
              [
                20.665373312000042,
                53.08700094100004
              ],
              [
                20.642253109000023,
                53.092413805000035
              ],
              [
                20.62091124600005,
                53.10480213300008
              ],
              [
                20.596634308000034,
                53.096376107000026
              ],
              [
                20.570263622000027,
                53.074094081000055
              ],
              [
                20.57840555200005,
                53.05879386400005
              ],
              [
                20.557491946000027,
                53.054360005000035
              ],
              [
                20.58506471100003,
                53.03661697500007
              ],
              [
                20.560147915000073,
                53.034591395000064
              ],
              [
                20.54973437800004,
                53.02245050500005
              ],
              [
                20.537311577000025,
                53.015176362000034
              ],
              [
                20.553595563000044,
                52.99147111500008
              ],
              [
                20.527477932000068,
                52.994937434000065
              ],
              [
                20.495201517000055,
                52.975577059000045
              ],
              [
                20.50358196700006,
                52.96136533600003
              ],
              [
                20.460837366000078,
                52.96102043700006
              ],
              [
                20.442648716000065,
                52.95459193100004
              ],
              [
                20.457587123000053,
                52.93468616600006
              ],
              [
                20.45244241300003,
                52.919909027000074
              ],
              [
                20.424892983000063,
                52.91636983400008
              ],
              [
                20.42179197200005,
                52.90053587600005
              ],
              [
                20.408262991000072,
                52.888197579000064
              ],
              [
                20.40346295200004,
                52.86791551600004
              ],
              [
                20.390140233000068,
                52.86074066900005
              ],
              [
                20.368764544000044,
                52.85951692900005
              ],
              [
                20.351281931000074,
                52.84759773800005
              ],
              [
                20.312436814000023,
                52.840651973000035
              ],
              [
                20.30866514300004,
                52.84897462300006
              ],
              [
                20.26433483900007,
                52.847504696000044
              ],
              [
                20.244785707000062,
                52.85416163500008
              ],
              [
                20.249333840000077,
                52.86997918900005
              ],
              [
                20.223539068000036,
                52.87657619200007
              ],
              [
                20.221778177000033,
                52.88753357500008
              ],
              [
                20.205419343000074,
                52.88774942500004
              ],
              [
                20.187022554000066,
                52.89571614000005
              ],
              [
                20.170306496000023,
                52.89648181800004
              ],
              [
                20.152087384000026,
                52.88822365400006
              ],
              [
                20.147795001000077,
                52.88616403700007
              ],
              [
                20.13104316500005,
                52.88897735900008
              ],
              [
                20.118190397000035,
                52.876453982000044
              ],
              [
                20.101251954000077,
                52.872522623000066
              ],
              [
                20.09314180100006,
                52.89364433800006
              ],
              [
                20.102138981000053,
                52.90812294500006
              ],
              [
                20.053776562000053,
                52.90185507700005
              ],
              [
                20.056864117000032,
                52.91083032300003
              ],
              [
                20.033306398000036,
                52.94918190800007
              ],
              [
                20.037319738000065,
                52.967748963000076
              ],
              [
                20.05840444300003,
                52.98026171400005
              ],
              [
                20.03869720000006,
                52.98622560000007
              ],
              [
                20.037154155000053,
                53.012242523000054
              ],
              [
                20.07137115300003,
                53.01340756500008
              ],
              [
                20.07170390300007,
                53.02144043000004
              ],
              [
                20.04767967300006,
                53.03652872300006
              ],
              [
                20.053202734000024,
                53.043512872000065
              ],
              [
                20.085599165000076,
                53.05214205800007
              ],
              [
                20.086446529000057,
                53.07017544900003
              ],
              [
                20.103294255000037,
                53.075922278000064
              ],
              [
                20.11471163300007,
                53.08846944000004
              ],
              [
                20.122223225000027,
                53.11091329300007
              ],
              [
                20.137931065000032,
                53.11155433600004
              ],
              [
                20.129000765000058,
                53.130401161000066
              ],
              [
                20.13514908700006,
                53.142453970000076
              ],
              [
                20.153650438000057,
                53.14277840300008
              ],
              [
                20.165263338000045,
                53.155773888000056
              ],
              [
                20.19544770600004,
                53.15233505700007
              ],
              [
                20.236879629000043,
                53.147901948000026
              ],
              [
                20.25798074900007,
                53.14116231200006
              ],
              [
                20.290248862000055,
                53.139118308000036
              ],
              [
                20.334408530000076,
                53.14515863500003
              ]
            ]
          ]
        ]
      },
      "properties": {
        "terc": "1413",
        "name": "mławski"
      }
    }
  ]
}